#aV2016  4 23  0  0  0.00000000     288 DD+AD WGS84 FIT  NGA
## 1893 518400.00000000   300.00000000 57501 0.0000000000000
+   31     1  2  3  5  6  7  8  9 10 11 12 13 14 15 16 17 18
+         19 20 21 22 23 24 25 26 27 28 29 30 31 32  0  0  0
+          0  0  0  0  0  0  0  0  0  0  0  0  0  0  0  0  0
+          0  0  0  0  0  0  0  0  0  0  0  0  0  0  0  0  0
+          0  0  0  0  0  0  0  0  0  0  0  0  0  0  0  0  0
++         2  2  2  2  2  2  2  2  2  2  2  2  2  2  2  2  2
++         2  2  2  2  2  2  2  2  2  2  2  2  2  2  0  0  0
++         0  0  0  0  0  0  0  0  0  0  0  0  0  0  0  0  0
++         0  0  0  0  0  0  0  0  0  0  0  0  0  0  0  0  0
++         0  0  0  0  0  0  0  0  0  0  0  0  0  0  0  0  0
%c cc cc ccc ccc cccc cccc cccc cccc ccccc ccccc ccccc ccccc
%c cc cc ccc ccc cccc cccc cccc cccc ccccc ccccc ccccc ccccc
%f  0.0000000  0.000000000  0.00000000000  0.000000000000000
%f  0.0000000  0.000000000  0.00000000000  0.000000000000000
%i    0    0    0    0      0      0      0      0         0
%i    0    0    0    0      0      0      0      0         0
/*      NGA, ST. LOUIS,MO.                                  
/*   EPHEMERIS COMPUTED FROM 2 DAYS OF DATA                 
/*   EPOCHA v2.4 SMOOTHER                                   
/*   G1762 IERS2010 SATAF SATAPC                            
*  2016  4 23 23 40  0.00000000
P  1  13594.430700 -11534.039788  19536.714705     18.249206                    
V  1   1280.688046  25038.988645  14062.931599      0.011697                    
P  2 -14049.133466 -12303.589033 -18597.838521    595.549262                    
V  2    504.109091 -24497.855274  15072.317053     -0.019295                    
P  3  22924.865127 -13421.836622   -102.477046    -50.677180                    
V  3   1556.853203   2403.833749  31717.818117     -0.039812                    
P  5 -20969.786139  -1267.727992 -16435.473793   -126.454036                    
V  5  16760.156377 -12321.167264 -20319.368129      0.031714                    
P  6  -6605.899548 -23983.820796  -9290.219032    180.189585                    
V  6   2404.132144 -11829.459741  28784.430515      0.056237                    
P  7   6149.841015 -24232.905685  -8209.864168    458.460070                    
V  7   2583.268647  10768.142357 -29764.816921     -0.020505                    
P  8  23392.750457   3443.588709  12186.663432    -32.538929                    
V  8  12296.724143   9495.183389 -26370.226446     -0.014208                    
P  9   6738.328265 -13793.114165 -21690.363171    115.789006                    
V  9  24039.747711  13398.795380  -1068.073931      0.074258                    
P 10    570.408881  16544.678555  20774.475203     -5.613474                    
V 10 -23171.655986  12591.187661  -9460.306259     -0.094793                    
P 11  15172.016076  -6019.838306  20402.264744   -643.020131                    
V 11  10035.771851  25572.241349    122.478571     -0.029918                    
P 12 -24176.560749  10244.557400   2979.092203    377.370632                    
V 12   2578.809603  -3632.421924  32250.957725      0.013368                    
P 13 -22950.156292 -11820.268386   5912.387824    -13.047775                    
V 13  -4741.728562  -6534.892512 -30870.185589     -0.026883                    
P 14  11704.269511  19615.235263  13946.426962    -10.036838                    
V 14 -15313.074118  -8080.225882  24512.578249     -0.021170                    
P 15 -22549.116864    567.616490  14164.496467   -307.827547                    
V 15 -15093.602211 -10391.075435 -23059.604875     -0.017061                    
P 16  20285.279804   2630.556130 -17258.633383    -22.408336                    
V 16 -18894.850296  10297.323510 -20379.740354      0.027182                    
P 17  -9210.170847 -19046.943508  16501.398455   -203.314455                    
V 17  17806.057480   9691.753176  21377.270755     -0.003508                    
P 18 -10776.570703  19673.503781  14557.989495    507.991913                    
V 18 -16625.751321   6955.615666 -22810.538039      0.042057                    
P 19 -17289.820056 -18365.953568   7431.701887   -525.669709                    
V 19   9560.677862   3514.175384  30354.722354     -0.000607                    
P 20 -23211.058490  12273.276787  -4328.829302    407.893235                    
V 20   2212.623572  -6143.526380 -30291.976275      0.024307                    
P 21  -2411.908043  25813.958779  -4337.401544   -520.205899                    
V 21  -4056.024477  -6373.584840 -30698.860386     -0.014094                    
P 22  24105.880180  -6717.777713   9337.188224    356.643357                    
V 22  -7980.645280   9037.310741  27680.929960     -0.076884                    
P 23  17156.780850  -6195.139912 -19266.726289   -170.742457                    
V 23  20896.890840  13358.264385  13740.419858     -0.016955                    
P 24 -14537.336142   8088.590008  20605.650528    -16.002402                    
V 24  -1738.506031 -26344.294303   9280.663276     -0.006441                    
P 25 -18563.249662  17080.211065  -8112.309417   -158.665781                    
V 25  -9910.494817   3179.720122  30007.404509     -0.070734                    
P 26  12035.253281  10234.112910 -21362.357242   -340.962963                    
V 26 -23064.374466  14252.010155  -6120.101543     -0.132253                    
P 27  23834.565822  11698.659490   2286.931638     85.305161                    
V 27   1389.169833   3473.854473 -31700.407038      0.039431                    
P 28   1801.664849 -16474.408729  21373.015106    518.259154                    
V 28  23292.704792 -10713.298008 -10579.027757      0.026013                    
P 29 -10248.282947  10966.552868 -21896.175259    657.065640                    
V 29 -23188.621909 -15311.566384   3227.790633      0.001656                    
P 30    433.673539 -26444.871415   1783.928885    119.353826                    
V 30   3305.843201  -2078.355851 -31515.927192      0.033887                    
P 31   7448.382645  22326.026443 -11840.423289    272.301925                    
V 31  -2827.446548  15236.831597  27072.312700     -0.018221                    
P 32  12157.607484  18576.804815  14588.705137      2.687253                    
V 32 -17158.559531  -7266.872185  23552.770829     -0.039788                    
EOF
